TDRS 3                  
1 19548U 88091B   26063.88989582 -.00000306  00000+0  00000+0 0  9995
2 19548  12.6802 341.6894 0044240 353.1115  98.6562  1.00260111124348
HST                     
1 20580U 90037B   26064.11414900  .00009685  00000+0  32209-3 0  9998
2 20580  28.4704  71.2102 0001764  80.5855 279.4940 15.29397580772611
TDRS 5                  
1 21639U 91054B   26063.58537697  .00000078  00000+0  00000+0 0  9990
2 21639  14.0840 354.5521 0010786 277.7780 293.2017  1.00266567126663
TDRS 6                  
1 22314U 93003B   26064.23893036 -.00000300  00000+0  00000+0 0  9991
2 22314  14.1808 357.8287 0005533 200.6180   4.5899  1.00278443121366
TDRS 7                  
1 23613U 95035B   26063.62083492 -.00000245  00000+0  00000+0 0  9998
2 23613  13.4204 348.9070 0008188  47.4770  78.5013  1.00276443112203
ISS (ZARYA)             
1 25544U 98067A   26064.25394533  .00008604  00000+0  16717-3 0  9994
2 25544  51.6314  94.2866 0008160 158.8383 201.2944 15.48454548555643
TERRA                   
1 25994U 99068A   26064.26433888  .00000637  00000+0  13891-3 0  9991
2 25994  97.9601 117.8679 0002432 161.9987 262.9617 14.61009456394436
TDRS 8                  
1 26388U 00034A   26063.94548778 -.00000201  00000+0  00000+0 0  9995
2 26388  12.5198  32.1910 0006148 308.2066 247.4328  1.00276406 94138
TIMED                   
1 26998U 01055B   26064.16250179  .00001767  00000+0  16514-3 0  9994
2 26998  74.0660  84.4325 0002993 281.0767  79.0081 14.95005104315271
AQUA                    
1 27424U 02022A   26064.32398608  .00001538  00000+0  31676-3 0  9994
2 27424  98.4169  31.6096 0000608  62.6450 101.9190 14.61964771268092
SORCE                   
1 27651U 03004A   26064.24754813  .00004633  00000+0  34770-3 0  9999
2 27651  39.9902 134.4199 0016414  21.4427 338.7051 15.03057620256258
AURA                    
1 28376U 04026A   26064.31428859  .00001524  00000+0  31958-3 0  9996
2 28376  98.3305  19.9890 0001026  79.9396 280.1920 14.61137160151047
SWIFT                   
1 28485U 04047A   26063.87433663  .00048516  00000+0  58869-3 0  9991
2 28485  20.5531 263.8342 0003178 330.4239  29.6025 15.58805646170512
THEMIS A                
1 30580U 07004A   26064.12109003 -.00000198  00000+0 -48392-2 0  9998
2 30580   6.7471 120.1925 8405230 177.4826 195.7682  0.87846874 40363
THEMIS D                
1 30797U 07004D   26063.76027644 -.00000246  00000+0  00000+0 0  9991
2 30797   6.6064  84.7113 8358430 215.7397  68.9811  0.87836012 40168
THEMIS E                
1 30798U 07004E   26064.27179731 -.00000256  00000+0  00000+0 0  9995
2 30798   4.1352  99.8579 8362064 201.5971 245.1119  0.87837748 65001
FGRST (GLAST)           
1 33053U 08029A   26064.09765024  .00004831  00000+0  18404-3 0  9999
2 33053  25.5812 206.8968 0008348 173.9116 186.1524 15.23287211979946
